STARLINK-36925
1 68042U 26041C   26092.87957300  .00372069  00000+0  23052-2 0  9991
2 68042  53.1575 301.7089 0001017 196.8844 163.2143 15.75446635  5039
STARLINK-36902
1 68043U 26041D   26091.88218472  .00326666  00000+0  20343-2 0  9994
2 68043  53.1589 306.1360 0001218  96.0437 264.0723 15.75458937  4882
STARLINK-36318
1 68048U 26041J   26092.80705717  .00540359  00000+0  32731-2 0  9996
2 68048  53.1588 301.9663 0000880 151.4685 208.6384 15.75487303  5023
STARLINK-35808
1 68052U 26041N   26092.59403110  .00545681  00000+0  33095-2 0  9996
2 68052  53.1566 302.7593 0001315 141.5703 218.5411 15.75444789  4997
STARLINK-36954
1 68057U 26041T   26092.86563082  .00573300  00000+0  34674-2 0  9999
2 68057  53.1594 301.6167 0000601 144.6195 215.4865 15.75428362  5038
STARLINK-36899
1 68058U 26041U   26092.86142156  .00491349  00000+0  29930-2 0  9996
2 68058  53.1570 301.5879 0000655 145.3603 214.7460 15.75496116  5038
STARLINK-36917
1 68059U 26041V   26092.85236564  .00493698  00000+0  30028-2 0  9992
2 68059  53.1566 301.5244 0001352 224.0853 136.0060 15.75525606  5036
STARLINK-36952
1 68062U 26041Y   26092.86109259  .00474872  00000+0  28972-2 0  9995
2 68062  53.1571 301.5848 0001879 116.2969 243.8244 15.75509356  5035
STARLINK-37000
1 68063U 26041Z   26092.01847686  .00289037  00000+0  18085-2 0  9997
2 68063  53.1579 305.5662 0003249 278.9448  81.1205 15.75458079  4903
STARLINK-36929
1 68067U 26041AD  26092.85656963  .00456169  00000+0  27967-2 0  9990
2 68067  53.1553 301.5530 0000912 144.8484 215.2597 15.75448186  5031
STARLINK-36320
1 68090U 26042X   26086.15385821  .00375248  00000+0  23254-2 0  9998
2 68090  53.1593 107.3571 0002763 139.4736 220.6491 15.75432358  4849
STARLINK-36745
1 68257U 26054AB  26092.83335647 -.00348856  00000+0 -23448-2 0  9991
2 68257  53.1586 191.5982 0000864 102.4950 246.3960 15.75450617  3792
